SL-16 R/B               
1 22803U 93059B   26072.00596648 -.00000033  00000+0  74946-5 0  9997
2 22803  70.9929   4.1331 0018342 211.6638 148.3383 14.17231380680004
ARIANE 40 R/B           
1 22830U 93061H   26071.77111389  .00000235  00000+0  10186-3 0  9995
2 22830  98.4910 140.5978 0009574 274.8814  85.1277 14.32862842694549
COSMOS 2278             
1 23087U 94023A   26071.70954886 -.00000011  00000+0  18980-4 0  9993
2 23087  71.0552 168.7804 0008292   7.5290 352.5956 14.14379509645238
SL-16 R/B               
1 23088U 94023B   26071.96673405 -.00000207  00000+0 -82170-4 0  9997
2 23088  70.9985  64.0041 0005679 282.5687  77.4800 14.15010758646555
SL-16 R/B               
1 23343U 94074B   26071.71335812  .00000598  00000+0  86804-4 0  9996
2 23343  97.7106 102.4086 0006034 199.4350 283.4668 14.79412069687698
SL-16 R/B               
1 23405U 94077B   26071.16978169  .00000105  00000+0  78284-4 0  9992
2 23405  70.9853 347.2721 0002954 208.8129 151.2831 14.15561637616580
ARIANE 40+ R/B          
1 23561U 95021B   26071.74535765  .00000337  00000+0  12127-3 0  9990
2 23561  98.4492 143.1865 0007760 128.3405 343.1943 14.39774980619685
SL-16 R/B               
1 23705U 95058B   26071.74224014  .00000316  00000+0  18601-3 0  9992
2 23705  71.0225 173.8470 0010649 120.1829 240.0350 14.15497449568280
SL-16 R/B               
1 24298U 96051B   26071.71556530  .00000088  00000+0  74448-4 0  9990
2 24298  70.7604 168.8345 0014827 143.3945 216.8191 14.12416562522073
ORBVIEW 2 (SEASTAR)     
1 24883U 97037A   26071.41507765  .00000369  00000+0  14441-3 0  9996
2 24883  98.8572 235.7991 0003027  66.4464 293.7039 14.35497264508869
SL-16 R/B               
1 25400U 98043G   26071.81878429  .00000087  00000+0  55455-4 0  9990
2 25400  98.8257  25.2043 0010062  11.7495 348.3918 14.26050651439433
SL-16 R/B               
1 25407U 98045B   26071.68103590  .00000297  00000+0  17402-3 0  9996
2 25407  71.0120 175.2837 0006931   3.5595 356.5576 14.16191601427527
ISS (ZARYA)             
1 25544U 98067A   26071.86901803  .00011348  00000+0  21655-3 0  9999
2 25544  51.6324  56.6367 0007923 186.1410 173.9482 15.48614629556824
CZ-4B R/B               
1 25732U 99025C   26071.78033076  .00000050  00000+0  44809-4 0  9997
2 25732  98.6621 115.9886 0036586 337.5944 138.4267 14.18265978388601
OKEAN-O                 
1 25860U 99039A   26071.82885704  .00000826  00000+0  11520-3 0  9996
2 25860  97.9435 131.6884 0001156  70.7306 289.4031 14.80341218434850
SL-16 R/B               
1 25861U 99039B   26071.73823471  .00000699  00000+0  95390-4 0  9996
2 25861  97.9961 130.8306 0013601 245.1835 114.7964 14.81736452437316
DELTA 2 R/B             
1 25876U 99041E   26071.98138346  .00001444  00000+0  27054-3 0  9992
2 25876  51.7623 288.1325 0502456 358.1395   1.7659 14.11849055363490
